start=new Date('2022-03-25T00:00:00.000Z').valueOf();
sats=[{"CLASSIFICATION_TYPE":"U","ECCENTRICITY":"0.00018230","OBJECT_TYPE":"PAYLOAD","PERIAPSIS":"545.942","PERIOD":"95.592","RA_OF_ASC_NODE":"346.9356","ARG_OF_PERICENTER":"53.7229","MEAN_MOTION":"15.06403066","INCLINATION":"53.0549","LAUNCH_DATE":"2021-02-16","EPHEMERIS_TYPE":"0","COUNTRY_CODE":"US","RCS_SIZE":"LARGE","MEAN_MOTION_DOT":"-0.00029217","OBJECT_NAME":"STARLINK-1972","CENTER_NAME":"EARTH","SEMIMAJOR_AXIS":"6925.339","REV_AT_EPOCH":"360","MEAN_MOTION_DDOT":"0.0000000000000","FILE":"3373054","GP_ID":"199620372","ELEMENT_SET_NO":"999","EPOCH":"2022-03-24T22:00:00.999936","TLE_LINE1":"1 47627U 21012H   22083.91667824 -.00029217  00000-0 -19504-2 0  9994","TLE_LINE2":"2 47627  53.0549 346.9356 0001823  53.7229 117.6507 15.06403066  3609","MEAN_ANOMALY":"117.6507","NORAD_CAT_ID":"47627","SITE":"AFETR","APOAPSIS":"548.467","MEAN_ELEMENT_THEORY":"SGP4","OBJECT_ID":"2021-012H","BSTAR":"-0.00195040000000","REF_FRAME":"TEME","TIME_SYSTEM":"UTC","DECAY_DATE":null},{"NORAD_CAT_ID":"47628","MEAN_ANOMALY":"298.1635","APOAPSIS":"548.359","SITE":"AFETR","REF_FRAME":"TEME","MEAN_ELEMENT_THEORY":"SGP4","OBJECT_ID":"2021-012J","BSTAR":"0.00007923300000","TIME_SYSTEM":"UTC","DECAY_DATE":null,"MEAN_MOTION_DDOT":"0.0000000000000","REV_AT_EPOCH":"6199","GP_ID":"199574840","FILE":"3372185","ELEMENT_SET_NO":"999","TLE_LINE1":"1 47628U 21012J   22083.38059895  .00000899  00000-0  79233-4 0  9999","TLE_LINE2":"2 47628  53.0542  84.3577 0001662  61.9521 298.1635 15.06401940 61990","EPOCH":"2022-03-24T09:08:03.749280","MEAN_MOTION_DOT":"0.00000899","RCS_SIZE":"LARGE","OBJECT_NAME":"STARLINK-1973","SEMIMAJOR_AXIS":"6925.343","CENTER_NAME":"EARTH","CLASSIFICATION_TYPE":"U","RA_OF_ASC_NODE":"84.3577","PERIOD":"95.592","OBJECT_TYPE":"PAYLOAD","ECCENTRICITY":"0.00016620","PERIAPSIS":"546.057","MEAN_MOTION":"15.06401940","INCLINATION":"53.0542","ARG_OF_PERICENTER":"61.9521","EPHEMERIS_TYPE":"0","COUNTRY_CODE":"US","LAUNCH_DATE":"2021-02-16"},{"SEMIMAJOR_AXIS":"6925.338","CENTER_NAME":"EARTH","OBJECT_NAME":"STARLINK-1974","RCS_SIZE":"LARGE","MEAN_MOTION_DOT":"-0.00012864","COUNTRY_CODE":"US","EPHEMERIS_TYPE":"0","LAUNCH_DATE":"2021-02-16","MEAN_MOTION":"15.06403378","INCLINATION":"53.0554","ARG_OF_PERICENTER":"67.0762","PERIOD":"95.592","RA_OF_ASC_NODE":"321.9408","OBJECT_TYPE":"PAYLOAD","PERIAPSIS":"546.101","ECCENTRICITY":"0.00015910","CLASSIFICATION_TYPE":"U","TIME_SYSTEM":"UTC","DECAY_DATE":null,"REF_FRAME":"TEME","OBJECT_ID":"2021-012K","MEAN_ELEMENT_THEORY":"SGP4","BSTAR":"-0.00084617000000","SITE":"AFETR","APOAPSIS":"548.305","NORAD_CAT_ID":"47629","MEAN_ANOMALY":"61.7886","TLE_LINE1":"1 47629U 21012K   22083.91667824 -.00012864  00000-0 -84617-3 0  9994","TLE_LINE2":"2 47629  53.0554 321.9408 0001591  67.0762  61.7886 15.06403378  3605","EPOCH":"2022-03-24T22:00:00.999936","ELEMENT_SET_NO":"999","GP_ID":"199621374","FILE":"3373054","MEAN_MOTION_DDOT":"0.0000000000000","REV_AT_EPOCH":"360"},{"REF_FRAME":"TEME","BSTAR":"0.00013333000000","MEAN_ELEMENT_THEORY":"SGP4","OBJECT_ID":"2021-012L","DECAY_DATE":null,"TIME_SYSTEM":"UTC","NORAD_CAT_ID":"47630","MEAN_ANOMALY":"310.1779","SITE":"AFETR","APOAPSIS":"548.568","ELEMENT_SET_NO":"999","TLE_LINE2":"2 47630  53.0563  63.1812 0001974  49.9383 310.1779 15.06403972 62296","TLE_LINE1":"1 47630U 21012L   22083.64320207  .00001705  00000-0  13333-3 0  9994","EPOCH":"2022-03-24T15:26:12.658848","MEAN_MOTION_DDOT":"0.0000000000000","REV_AT_EPOCH":"6229","GP_ID":"199620122","FILE":"3373054","SEMIMAJOR_AXIS":"6925.336","CENTER_NAME":"EARTH","MEAN_MOTION_DOT":"0.00001705","RCS_SIZE":"LARGE","OBJECT_NAME":"STARLINK-1983","INCLINATION":"53.0563","MEAN_MOTION":"15.06403972","ARG_OF_PERICENTER":"49.9383","EPHEMERIS_TYPE":"0","COUNTRY_CODE":"US","LAUNCH_DATE":"2021-02-16","CLASSIFICATION_TYPE":"U","PERIOD":"95.592","RA_OF_ASC_NODE":"63.1812","OBJECT_TYPE":"PAYLOAD","ECCENTRICITY":"0.00019740","PERIAPSIS":"545.834"},{"COUNTRY_CODE":"US","EPHEMERIS_TYPE":"0","LAUNCH_DATE":"2021-02-16","MEAN_MOTION":"15.06402703","INCLINATION":"53.0548","ARG_OF_PERICENTER":"63.6779","PERIOD":"95.592","RA_OF_ASC_NODE":"346.9582","OBJECT_TYPE":"PAYLOAD","PERIAPSIS":"546.022","ECCENTRICITY":"0.00017090","CLASSIFICATION_TYPE":"U","SEMIMAJOR_AXIS":"6925.340","CENTER_NAME":"EARTH","OBJECT_NAME":"STARLINK-1992","MEAN_MOTION_DOT":"-0.00020832","RCS_SIZE":"LARGE","TLE_LINE1":"1 47632U 21012N   22083.91667824 -.00020832  00000-0 -13836-2 0  9996","TLE_LINE2":"2 47632  53.0548 346.9582 0001709  63.6779 332.8042 15.06402703  3600","EPOCH":"2022-03-24T22:00:00.999936","ELEMENT_SET_NO":"999","GP_ID":"199619873","FILE":"3373054","MEAN_MOTION_DDOT":"0.0000000000000","REV_AT_EPOCH":"360","TIME_SYSTEM":"UTC","DECAY_DATE":null,"REF_FRAME":"TEME","OBJECT_ID":"2021-012N","MEAN_ELEMENT_THEORY":"SGP4","BSTAR":"-0.00138360000000","SITE":"AFETR","APOAPSIS":"548.389","NORAD_CAT_ID":"47632","MEAN_ANOMALY":"332.8042"},{"MEAN_MOTION_DDOT":"0.0000000000000","REV_AT_EPOCH":"6153","GP_ID":"199580737","FILE":"3372311","ELEMENT_SET_NO":"999","TLE_LINE1":"1 47633U 21012P   22083.72708274  .00002503  00000-0  18685-3 0  9992","TLE_LINE2":"2 47633  53.0539  82.7907 0001834  54.8990 305.2171 15.06406404 61538","EPOCH":"2022-03-24T17:26:59.948736","NORAD_CAT_ID":"47633","MEAN_ANOMALY":"305.2171","SITE":"AFETR","APOAPSIS":"548.464","REF_FRAME":"TEME","MEAN_ELEMENT_THEORY":"SGP4","OBJECT_ID":"2021-012P","BSTAR":"0.00018685000000","TIME_SYSTEM":"UTC","DECAY_DATE":null,"CLASSIFICATION_TYPE":"U","RA_OF_ASC_NODE":"82.7907","PERIOD":"95.592","PERIAPSIS":"545.924","OBJECT_TYPE":"PAYLOAD","ECCENTRICITY":"0.00018340","MEAN_MOTION":"15.06406404","INCLINATION":"53.0539","ARG_OF_PERICENTER":"54.8990","EPHEMERIS_TYPE":"0","COUNTRY_CODE":"US","LAUNCH_DATE":"2021-02-16","RCS_SIZE":"LARGE","MEAN_MOTION_DOT":"0.00002503","OBJECT_NAME":"STARLINK-2009","SEMIMAJOR_AXIS":"6925.329","CENTER_NAME":"EARTH"},{"TLE_LINE2":"2 47634  53.0536  82.0014 0001777  65.5485 294.5689 15.06411319 62066","TLE_LINE1":"1 47634U 21012Q   22083.90401039  .00005933  00000-0  41675-3 0  9997","EPOCH":"2022-03-24T21:41:46.497696","ELEMENT_SET_NO":"999","GP_ID":"199620875","FILE":"3373054","MEAN_MOTION_DDOT":"0.0000000000000","REV_AT_EPOCH":"6206","DECAY_DATE":null,"TIME_SYSTEM":"UTC","REF_FRAME":"TEME","BSTAR":"0.00041675000000","MEAN_ELEMENT_THEORY":"SGP4","OBJECT_ID":"2021-012Q","SITE":"AFETR","APOAPSIS":"548.409","NORAD_CAT_ID":"47634","MEAN_ANOMALY":"294.5689","COUNTRY_CODE":"US","EPHEMERIS_TYPE":"0","LAUNCH_DATE":"2021-02-16","INCLINATION":"53.0536","MEAN_MOTION":"15.06411319","ARG_OF_PERICENTER":"65.5485","PERIOD":"95.591","RA_OF_ASC_NODE":"82.0014","PERIAPSIS":"545.948","OBJECT_TYPE":"PAYLOAD","ECCENTRICITY":"0.00017770","CLASSIFICATION_TYPE":"U","SEMIMAJOR_AXIS":"6925.314","CENTER_NAME":"EARTH","OBJECT_NAME":"STARLINK-2010","MEAN_MOTION_DOT":"0.00005933","RCS_SIZE":"LARGE"},{"DECAY_DATE":null,"TIME_SYSTEM":"UTC","REF_FRAME":"TEME","BSTAR":"-0.00298740000000","MEAN_ELEMENT_THEORY":"SGP4","OBJECT_ID":"2021-012R","APOAPSIS":"548.181","SITE":"AFETR","NORAD_CAT_ID":"47635","MEAN_ANOMALY":"220.1950","TLE_LINE2":"2 47635  53.0587 346.8475 0001441  71.1677 220.1950 15.06409935  3601","TLE_LINE1":"1 47635U 21012R   22083.91667824 -.00044513  00000-0 -29874-2 0  9990","EPOCH":"2022-03-24T22:00:00.999936","ELEMENT_SET_NO":"999","GP_ID":"199619623","FILE":"3373054","MEAN_MOTION_DDOT":"0.0000000000000","REV_AT_EPOCH":"360","SEMIMAJOR_AXIS":"6925.318","CENTER_NAME":"EARTH","OBJECT_NAME":"STARLINK-2012","RCS_SIZE":"LARGE","MEAN_MOTION_DOT":"-0.00044513","COUNTRY_CODE":"US","EPHEMERIS_TYPE":"0","LAUNCH_DATE":"2021-02-16","INCLINATION":"53.0587","MEAN_MOTION":"15.06409935","ARG_OF_PERICENTER":"71.1677","PERIOD":"95.592","RA_OF_ASC_NODE":"346.8475","ECCENTRICITY":"0.00014410","OBJECT_TYPE":"PAYLOAD","PERIAPSIS":"546.185","CLASSIFICATION_TYPE":"U"},{"TIME_SYSTEM":"UTC","DECAY_DATE":null,"OBJECT_ID":"2021-012S","MEAN_ELEMENT_THEORY":"SGP4","BSTAR":"0.00019182000000","REF_FRAME":"TEME","SITE":"AFETR","APOAPSIS":"548.218","MEAN_ANOMALY":"280.2137","NORAD_CAT_ID":"47636","EPOCH":"2022-03-24T21:23:11.333760","TLE_LINE1":"1 47636U 21012S   22083.89110340  .00002577  00000-0  19182-3 0  9998","TLE_LINE2":"2 47636  53.0565  62.0626 0001482  79.9019 280.2137 15.06407164 62346","ELEMENT_SET_NO":"999","FILE":"3373054","GP_ID":"199620373","REV_AT_EPOCH":"6234","MEAN_MOTION_DDOT":"0.0000000000000","CENTER_NAME":"EARTH","SEMIMAJOR_AXIS":"6925.327","OBJECT_NAME":"STARLINK-2013","RCS_SIZE":"LARGE","MEAN_MOTION_DOT":"0.00002577","LAUNCH_DATE":"2021-02-16","EPHEMERIS_TYPE":"0","COUNTRY_CODE":"US","ARG_OF_PERICENTER":"79.9019","MEAN_MOTION":"15.06407164","INCLINATION":"53.0565","ECCENTRICITY":"0.00014820","OBJECT_TYPE":"PAYLOAD","PERIAPSIS":"546.165","PERIOD":"95.592","RA_OF_ASC_NODE":"62.0626","CLASSIFICATION_TYPE":"U"},{"TLE_LINE1":"1 47637U 21012T   22083.92796275  .00001583  00000-0  12514-3 0  9998","TLE_LINE2":"2 47637  53.0562  61.8943 0001883  51.0521 309.0636 15.06407312 62368","EPOCH":"2022-03-24T22:16:15.981600","ELEMENT_SET_NO":"999","GP_ID":"199620625","FILE":"3373054","MEAN_MOTION_DDOT":"0.0000000000000","REV_AT_EPOCH":"6236","TIME_SYSTEM":"UTC","DECAY_DATE":null,"REF_FRAME":"TEME","MEAN_ELEMENT_THEORY":"SGP4","OBJECT_ID":"2021-012T","BSTAR":"0.00012514000000","APOAPSIS":"548.495","SITE":"AFETR","NORAD_CAT_ID":"47637","MEAN_ANOMALY":"309.0636","EPHEMERIS_TYPE":"0","COUNTRY_CODE":"US","LAUNCH_DATE":"2021-02-16","MEAN_MOTION":"15.06407312","INCLINATION":"53.0562","ARG_OF_PERICENTER":"51.0521","PERIOD":"95.592","RA_OF_ASC_NODE":"61.8943","OBJECT_TYPE":"PAYLOAD","ECCENTRICITY":"0.00018830","PERIAPSIS":"545.887","CLASSIFICATION_TYPE":"U","SEMIMAJOR_AXIS":"6925.326","CENTER_NAME":"EARTH","OBJECT_NAME":"STARLINK-2014","MEAN_MOTION_DOT":"0.00001583","RCS_SIZE":"LARGE"}];
